start=new Date('2021-12-24T00:00:00.000Z').valueOf();
sats=[{"TLE_LINE1":"1 49137U 21082H   21357.91667824  .00038856  00000-0  32586-3 0  9995","APOAPSIS":"361.931","RCS_SIZE":"LARGE","NORAD_CAT_ID":"49137","MEAN_MOTION_DDOT":"0.0000000000000","CENTER_NAME":"EARTH","BSTAR":"0.00032586000000","OBJECT_NAME":"STARLINK-3055","MEAN_ELEMENT_THEORY":"SGP4","INCLINATION":"69.9986","PERIAPSIS":"357.345","OBJECT_ID":"2021-082H","OBJECT_TYPE":"PAYLOAD","GP_ID":"192325775","LAUNCH_DATE":"2021-09-14","REV_AT_EPOCH":"369","TIME_SYSTEM":"UTC","EPHEMERIS_TYPE":"0","PERIOD":"91.735","ELEMENT_SET_NO":"999","EPOCH":"2021-12-23T22:00:00.999936","COUNTRY_CODE":"US","SEMIMAJOR_AXIS":"6737.773","MEAN_ANOMALY":"335.9634","RA_OF_ASC_NODE":"203.5673","REF_FRAME":"TEME","ARG_OF_PERICENTER":"269.0842","FILE":"3249421","MEAN_MOTION":"15.69741808","SITE":"AFWTR","MEAN_MOTION_DOT":"0.00038856","ECCENTRICITY":"0.00034030","CLASSIFICATION_TYPE":"U","DECAY_DATE":null,"TLE_LINE2":"2 49137  69.9986 203.5673 0003403 269.0842 335.9634 15.69741808  3690"},{"TLE_LINE1":"1 49138U 21082J   21357.91667824  .00013793  00000-0  85928-3 0  9997","APOAPSIS":"539.221","RCS_SIZE":"LARGE","NORAD_CAT_ID":"49138","MEAN_MOTION_DDOT":"0.0000000000000","CENTER_NAME":"EARTH","BSTAR":"0.00085928000000","OBJECT_NAME":"STARLINK-3058","INCLINATION":"69.9986","MEAN_ELEMENT_THEORY":"SGP4","PERIAPSIS":"535.133","OBJECT_ID":"2021-082J","OBJECT_TYPE":"PAYLOAD","GP_ID":"192326932","LAUNCH_DATE":"2021-09-14","REV_AT_EPOCH":"363","TIME_SYSTEM":"UTC","EPHEMERIS_TYPE":"0","PERIOD":"95.384","ELEMENT_SET_NO":"999","EPOCH":"2021-12-23T22:00:00.999936","COUNTRY_CODE":"US","MEAN_ANOMALY":"73.0529","SEMIMAJOR_AXIS":"6915.312","RA_OF_ASC_NODE":"209.3216","REF_FRAME":"TEME","ARG_OF_PERICENTER":"262.9459","FILE":"3249421","MEAN_MOTION":"15.09680661","SITE":"AFWTR","MEAN_MOTION_DOT":"0.00013793","ECCENTRICITY":"0.00029560","CLASSIFICATION_TYPE":"U","DECAY_DATE":null,"TLE_LINE2":"2 49138  69.9986 209.3216 0002956 262.9459  73.0529 15.09680661  3636"},{"EPOCH":"2021-12-23T22:00:00.999936","COUNTRY_CODE":"US","SEMIMAJOR_AXIS":"6737.820","MEAN_ANOMALY":"337.8233","REF_FRAME":"TEME","RA_OF_ASC_NODE":"203.5596","ARG_OF_PERICENTER":"271.5192","MEAN_MOTION":"15.69725131","FILE":"3249421","SITE":"AFWTR","ECCENTRICITY":"0.00033860","MEAN_MOTION_DOT":"0.00065280","DECAY_DATE":null,"CLASSIFICATION_TYPE":"U","TLE_LINE2":"2 49139  69.9996 203.5596 0003386 271.5192 337.8233 15.69725131  3690","TLE_LINE1":"1 49139U 21082K   21357.91667824  .00065280  00000-0  54491-3 0  9997","RCS_SIZE":"LARGE","APOAPSIS":"361.967","MEAN_MOTION_DDOT":"0.0000000000000","NORAD_CAT_ID":"49139","CENTER_NAME":"EARTH","BSTAR":"0.00054491000000","OBJECT_NAME":"STARLINK-3057","INCLINATION":"69.9996","MEAN_ELEMENT_THEORY":"SGP4","PERIAPSIS":"357.404","GP_ID":"192326705","OBJECT_TYPE":"PAYLOAD","OBJECT_ID":"2021-082K","LAUNCH_DATE":"2021-09-14","TIME_SYSTEM":"UTC","REV_AT_EPOCH":"369","PERIOD":"91.736","EPHEMERIS_TYPE":"0","ELEMENT_SET_NO":"999"},{"GP_ID":"192326017","OBJECT_ID":"2021-082L","OBJECT_TYPE":"PAYLOAD","LAUNCH_DATE":"2021-09-14","MEAN_ELEMENT_THEORY":"SGP4","INCLINATION":"70.0000","PERIAPSIS":"357.243","ELEMENT_SET_NO":"999","TIME_SYSTEM":"UTC","REV_AT_EPOCH":"369","PERIOD":"91.735","EPHEMERIS_TYPE":"0","MEAN_MOTION_DDOT":"0.0000000000000","NORAD_CAT_ID":"49140","CENTER_NAME":"EARTH","TLE_LINE1":"1 49140U 21082L   21357.91667824 -.00000963  00000-0 -62860-5 0  9999","RCS_SIZE":"LARGE","APOAPSIS":"362.000","BSTAR":"-0.00000628600000","OBJECT_NAME":"STARLINK-3118","SITE":"AFWTR","TLE_LINE2":"2 49140  70.0000 203.5621 0003530 274.9323 340.5318 15.69747334  3698","ECCENTRICITY":"0.00035300","MEAN_MOTION_DOT":"-0.00000963","DECAY_DATE":null,"CLASSIFICATION_TYPE":"U","COUNTRY_CODE":"US","EPOCH":"2021-12-23T22:00:00.999936","ARG_OF_PERICENTER":"274.9323","MEAN_MOTION":"15.69747334","FILE":"3249421","MEAN_ANOMALY":"340.5318","SEMIMAJOR_AXIS":"6737.757","RA_OF_ASC_NODE":"203.5621","REF_FRAME":"TEME"},{"SITE":"AFWTR","TLE_LINE2":"2 49141  70.0001 209.3432 0003240 273.4667  76.4387 15.07665969  3637","MEAN_MOTION_DOT":"-0.00665105","ECCENTRICITY":"0.00032400","CLASSIFICATION_TYPE":"U","DECAY_DATE":null,"COUNTRY_CODE":"US","EPOCH":"2021-12-23T22:00:00.999936","ARG_OF_PERICENTER":"273.4667","FILE":"3249421","MEAN_MOTION":"15.07665969","SEMIMAJOR_AXIS":"6921.471","MEAN_ANOMALY":"76.4387","RA_OF_ASC_NODE":"209.3432","REF_FRAME":"TEME","OBJECT_ID":"2021-082M","OBJECT_TYPE":"PAYLOAD","GP_ID":"192326250","LAUNCH_DATE":"2021-09-14","MEAN_ELEMENT_THEORY":"SGP4","INCLINATION":"70.0001","PERIAPSIS":"541.094","ELEMENT_SET_NO":"999","REV_AT_EPOCH":"363","TIME_SYSTEM":"UTC","EPHEMERIS_TYPE":"0","PERIOD":"95.512","NORAD_CAT_ID":"49141","MEAN_MOTION_DDOT":"0.0000000000000","CENTER_NAME":"EARTH","TLE_LINE1":"1 49141U 21082M   21357.91667824 -.00665105  00000-0 -46521-1 0  9997","APOAPSIS":"545.579","RCS_SIZE":"LARGE","BSTAR":"-0.04652100000000","OBJECT_NAME":"STARLINK-3093"},{"NORAD_CAT_ID":"49142","MEAN_MOTION_DDOT":"0.0000000000000","CENTER_NAME":"EARTH","TLE_LINE1":"1 49142U 21082N   21357.91667824 -.00000876  00000-0 -55590-5 0  9996","APOAPSIS":"361.828","RCS_SIZE":"LARGE","BSTAR":"-0.00000555900000","OBJECT_NAME":"STARLINK-3042","OBJECT_TYPE":"PAYLOAD","OBJECT_ID":"2021-082N","GP_ID":"192326476","LAUNCH_DATE":"2021-09-14","MEAN_ELEMENT_THEORY":"SGP4","INCLINATION":"70.0001","PERIAPSIS":"357.416","ELEMENT_SET_NO":"999","REV_AT_EPOCH":"369","TIME_SYSTEM":"UTC","EPHEMERIS_TYPE":"0","PERIOD":"91.735","COUNTRY_CODE":"US","EPOCH":"2021-12-23T22:00:00.999936","ARG_OF_PERICENTER":"274.3544","FILE":"3249421","MEAN_MOTION":"15.69747296","SEMIMAJOR_AXIS":"6737.757","MEAN_ANOMALY":"343.2364","REF_FRAME":"TEME","RA_OF_ASC_NODE":"203.5595","SITE":"AFWTR","TLE_LINE2":"2 49142  70.0001 203.5595 0003274 274.3544 343.2364 15.69747296  3693","MEAN_MOTION_DOT":"-0.00000876","ECCENTRICITY":"0.00032740","CLASSIFICATION_TYPE":"U","DECAY_DATE":null},{"CLASSIFICATION_TYPE":"U","DECAY_DATE":null,"MEAN_MOTION_DOT":"-0.00000973","ECCENTRICITY":"0.00029190","TLE_LINE2":"2 49143  70.0001 203.5571 0002919 272.8895 346.8278 15.69747350  3699","SITE":"AFWTR","RA_OF_ASC_NODE":"203.5571","REF_FRAME":"TEME","SEMIMAJOR_AXIS":"6737.757","MEAN_ANOMALY":"346.8278","FILE":"3249421","MEAN_MOTION":"15.69747350","ARG_OF_PERICENTER":"272.8895","EPOCH":"2021-12-23T22:00:00.999936","COUNTRY_CODE":"US","EPHEMERIS_TYPE":"0","PERIOD":"91.735","REV_AT_EPOCH":"369","TIME_SYSTEM":"UTC","ELEMENT_SET_NO":"999","PERIAPSIS":"357.655","MEAN_ELEMENT_THEORY":"SGP4","INCLINATION":"70.0001","LAUNCH_DATE":"2021-09-14","OBJECT_ID":"2021-082P","OBJECT_TYPE":"PAYLOAD","GP_ID":"192327162","OBJECT_NAME":"STARLINK-3109","BSTAR":"-0.00000637350000","APOAPSIS":"361.589","RCS_SIZE":"LARGE","TLE_LINE1":"1 49143U 21082P   21357.91667824 -.00000973  00000-0 -63735-5 0  9995","CENTER_NAME":"EARTH","NORAD_CAT_ID":"49143","MEAN_MOTION_DDOT":"0.0000000000000"},{"COUNTRY_CODE":"US","EPOCH":"2021-12-23T22:00:00.999936","FILE":"3249421","MEAN_MOTION":"15.07727822","ARG_OF_PERICENTER":"275.6637","REF_FRAME":"TEME","RA_OF_ASC_NODE":"209.3453","SEMIMAJOR_AXIS":"6921.282","MEAN_ANOMALY":"94.6195","SITE":"AFWTR","TLE_LINE2":"2 49144  70.0001 209.3453 0003268 275.6637  94.6195 15.07727822  3630","CLASSIFICATION_TYPE":"U","DECAY_DATE":null,"MEAN_MOTION_DOT":"-0.00666067","ECCENTRICITY":"0.00032680","CENTER_NAME":"EARTH","NORAD_CAT_ID":"49144","MEAN_MOTION_DDOT":"0.0000000000000","RCS_SIZE":"LARGE","APOAPSIS":"545.409","TLE_LINE1":"1 49144U 21082Q   21357.91667824 -.00666067  00000-0 -46514-1 0  9990","OBJECT_NAME":"STARLINK-3100","BSTAR":"-0.04651400000000","LAUNCH_DATE":"2021-09-14","OBJECT_ID":"2021-082Q","OBJECT_TYPE":"PAYLOAD","GP_ID":"192325543","PERIAPSIS":"540.885","MEAN_ELEMENT_THEORY":"SGP4","INCLINATION":"70.0001","ELEMENT_SET_NO":"999","EPHEMERIS_TYPE":"0","PERIOD":"95.508","REV_AT_EPOCH":"363","TIME_SYSTEM":"UTC"},{"REF_FRAME":"TEME","RA_OF_ASC_NODE":"203.5471","SEMIMAJOR_AXIS":"6737.756","MEAN_ANOMALY":"354.5226","FILE":"3249421","MEAN_MOTION":"15.69747578","ARG_OF_PERICENTER":"273.7010","EPOCH":"2021-12-23T22:00:00.999936","COUNTRY_CODE":"US","CLASSIFICATION_TYPE":"U","DECAY_DATE":null,"MEAN_MOTION_DOT":"-0.00001425","ECCENTRICITY":"0.00032550","TLE_LINE2":"2 49145  70.0001 203.5471 0003255 273.7010 354.5226 15.69747578  3694","SITE":"AFWTR","OBJECT_NAME":"STARLINK-3119","BSTAR":"-0.00001016300000","APOAPSIS":"361.814","RCS_SIZE":"LARGE","TLE_LINE1":"1 49145U 21082R   21357.91667824 -.00001425  00000-0 -10163-4 0  9996","CENTER_NAME":"EARTH","NORAD_CAT_ID":"49145","MEAN_MOTION_DDOT":"0.0000000000000","EPHEMERIS_TYPE":"0","PERIOD":"91.734","REV_AT_EPOCH":"369","TIME_SYSTEM":"UTC","ELEMENT_SET_NO":"999","PERIAPSIS":"357.428","INCLINATION":"70.0001","MEAN_ELEMENT_THEORY":"SGP4","LAUNCH_DATE":"2021-09-14","OBJECT_ID":"2021-082R","OBJECT_TYPE":"PAYLOAD","GP_ID":"192325776"},{"COUNTRY_CODE":"US","EPOCH":"2021-12-23T22:00:00.999936","FILE":"3249149","MEAN_MOTION":"15.69747488","ARG_OF_PERICENTER":"270.7180","RA_OF_ASC_NODE":"203.5495","REF_FRAME":"TEME","SEMIMAJOR_AXIS":"6737.756","MEAN_ANOMALY":"355.3791","SITE":"AFWTR","TLE_LINE2":"2 49146  70.0001 203.5495 0003288 270.7180 355.3791 15.69747488 17097","CLASSIFICATION_TYPE":"U","DECAY_DATE":null,"MEAN_MOTION_DOT":"-0.00001263","ECCENTRICITY":"0.00032880","CENTER_NAME":"EARTH","NORAD_CAT_ID":"49146","MEAN_MOTION_DDOT":"0.0000000000000","APOAPSIS":"361.837","RCS_SIZE":"LARGE","TLE_LINE1":"1 49146U 21082S   21357.91667824 -.00001263  00000-0 -88013-5 0  9997","OBJECT_NAME":"STARLINK-3116","BSTAR":"-0.00000880130000","LAUNCH_DATE":"2021-09-14","OBJECT_ID":"2021-082S","OBJECT_TYPE":"PAYLOAD","GP_ID":"192300721","PERIAPSIS":"357.406","INCLINATION":"70.0001","MEAN_ELEMENT_THEORY":"SGP4","ELEMENT_SET_NO":"999","EPHEMERIS_TYPE":"0","PERIOD":"91.734","REV_AT_EPOCH":"1709","TIME_SYSTEM":"UTC"}];
